STARLINK-3048
1 19148C 21082U   21326.12657596 -.00038756  00000-0 -32460-3 0  3267
2 19148  69.9991 292.9021 0003849 285.5134  32.8642 15.69789055    19
